[{"OBJECT_NAME":"LEMUR-2-EMERSONROSE","OBJECT_ID":"2025-052BD","EPOCH":"2026-03-09T22:41:34.308672","MEAN_MOTION":14.98235234,"ECCENTRICITY":0.00026118,"INCLINATION":97.701,"RA_OF_ASC_NODE":323.5746,"ARG_OF_PERICENTER":47.547,"MEAN_ANOMALY":312.5973,"EPHEMERIS_TYPE":0,"CLASSIFICATION_TYPE":"U","NORAD_CAT_ID":63261,"ELEMENT_SET_NO":999,"REV_AT_EPOCH":5387,"BSTAR":0.00054278878,"MEAN_MOTION_DOT":6.392e-5,"MEAN_MOTION_DDOT":0},{"OBJECT_NAME":"STARLINK-36197","OBJECT_ID":"2025-304P","EPOCH":"2026-03-09T17:24:06.651936","MEAN_MOTION":14.98335798,"ECCENTRICITY":0.00037278,"INCLINATION":70.0023,"RA_OF_ASC_NODE":174.2194,"ARG_OF_PERICENTER":271.554,"MEAN_ANOMALY":88.5192,"EPHEMERIS_TYPE":0,"CLASSIFICATION_TYPE":"U","NORAD_CAT_ID":67205,"ELEMENT_SET_NO":999,"REV_AT_EPOCH":1386,"BSTAR":0.00073767702,"MEAN_MOTION_DOT":8.721e-5,"MEAN_MOTION_DDOT":0}]
